STARLINK-11555 [DTC]    
1 62915U 25027J   25144.86048269  .00000255  00000+0  54903-5 0  9995
2 62915  43.0008 288.9138 0001825 279.0320  81.0341 15.70824729 17761
STARLINK-11430 [DTC]    
1 62916U 25027K   25144.80660458  .00000021  00000+0  36640-5 0  9999
2 62916  43.0008 289.3741 0001878 268.4635  91.6017 15.70829689 17752
STARLINK-11560 [DTC]    
1 62917U 25027L   25144.77475068 -.00000062  00000+0  30178-5 0  9993
2 62917  43.0003 289.1175 0001807 268.7504  91.3157 15.70827451 17710
STARLINK-11562 [DTC]    
1 62918U 25027M   25144.82771841  .00000451  00000+0  70039-5 0  9999
2 62918  42.9933 288.6545 0000667 316.1731  43.9083 15.70830797 17762
STARLINK-11457 [DTC]    
1 62919U 25027N   25144.43559806 -.00000257  00000+0  14899-5 0  9999
2 62919  42.9997 290.8624 0001026 280.6614  79.4138 15.70829006 17644
STARLINK-32921          
1 62920U 25027P   25144.54953013 -.00000737  00000+0 -17249-4 0  9996
2 62920  43.0016 321.6466 0001053 261.7683  98.3049 15.27578467 17323
STARLINK-32917          
1 62921U 25027Q   25144.75982484 -.00000349  00000+0 -31635-5 0  9999
2 62921  42.9997 320.6401 0001078 262.8774  97.1955 15.27579050 17353
STARLINK-32916          
1 62922U 25027R   25144.48799599  .00000473  00000+0  26730-4 0  9998
2 62922  43.0017 322.0411 0001364 270.5462  89.5233 15.27574942 17319
STARLINK-32905          
1 62923U 25027S   25144.96753420 -.00006431  00000+0 -22406-3 0  9992
2 62923  42.9997 319.6267 0000824 284.2543  75.8217 15.27627299 17389
STARLINK-32871          
1 62924U 25027T   25144.55978538  .00001138  00000+0  50848-4 0  9996
2 62924  42.9986 321.7139 0002008 243.6391 116.4255 15.27589868 17312
STARLINK-32920          
1 62925U 25027U   25144.49056514  .00003714  00000+0  14450-3 0  9991
2 62925  43.0016 322.0582 0001359 243.2436 116.8277 15.27563945 17315
STARLINK-32922          
1 62926U 25027V   25144.76752828  .00002164  00000+0  88108-4 0  9993
2 62926  42.9993 320.7017 0000817 276.5791  83.4968 15.27583974 17351
STARLINK-32891          
1 62927U 25027W   25144.77396283  .00000205  00000+0  16964-4 0  9999
2 62927  43.0021 320.7539 0001326 268.9556  91.1143 15.27587338 17321
STARLINK-32728          
1 62948U 25029A   25144.35209642  .00000767  00000+0  29162-4 0  9997
2 62948  53.1597 134.6367 0001212  88.7167 271.3977 15.39614469 17084
STARLINK-32857          
1 62949U 25029B   25144.95954249 -.00000936  00000+0 -13417-4 0  9990
2 62949  53.1603 132.0309 0001200  88.5008 271.6134 15.39615473 17174
STARLINK-32850          
1 62950U 25029C   25145.23537602  .00000471  00000+0  28049-4 0  9993
2 62950  53.1595 132.3231 0001269  88.8908 271.2238 15.30194344 17171
STARLINK-32875          
1 62951U 25029D   25144.69526835 -.00002484  00000+0 -52180-4 0  9990
2 62951  53.1593 133.2240 0001214  77.0112 283.1029 15.39595549 17101
STARLINK-32865          
1 62952U 25029E   25145.22905569 -.00000017  00000+0  11568-4 0  9990
2 62952  53.1620 132.2837 0001429  85.4896 274.6268 15.30180598 17165
STARLINK-32884          
1 62953U 25029F   25144.68595290 -.00000055  00000+0  86105-5 0  9998
2 62953  53.1607 133.1652 0001360  95.6192 264.4968 15.39617048 17104
STARLINK-32874          
1 62954U 25029G   25143.36634207  .00510005  00000+0  10606-1 0  9994
2 62954  53.1576 139.1478 0016671 355.2928   4.7919 15.43074602 16901
STARLINK-32880          
1 62955U 25029H   25144.96673471 -.00000738  00000+0 -12785-4 0  9990
2 62955  53.1597 133.4885 0001223  82.1014 278.0125 15.30188034 17124
STARLINK-32815          
1 62956U 25029J   25144.23619553  .00000189  00000+0  14719-4 0  9999
2 62956  53.1606 135.3350 0001285  90.4923 269.6229 15.39613203 17045
STARLINK-32879          
1 62957U 25029K   25144.46848985 -.00001257  00000+0 -30320-4 0  9993
2 62957  53.1594 136.0694 0001401  68.2278 291.8872 15.30195424 17038
STARLINK-32885          
1 62958U 25029L   25144.34745455  .00002327  00000+0  68179-4 0  9999
2 62958  53.1600 134.6052 0001199  87.9228 272.1914 15.39604343 17040
STARLINK-32896          
1 62959U 25029M   25144.93835483 -.00000565  00000+0 -69640-5 0  9995
2 62959  53.1605 134.0240 0001213  93.9045 266.2094 15.30193286 17100
STARLINK-32877          
1 62960U 25029N   25144.99733437  .00000363  00000+0  24397-4 0  9992
2 62960  53.1605 133.6796 0001165  94.1002 266.0132 15.30195876 17079
STARLINK-32889          
1 62961U 25029P   25144.41267150  .00000528  00000+0  29958-4 0  9995
2 62961  53.1604 136.4334 0001284  94.9111 265.2036 15.30189207 17029
STARLINK-32858          
1 62962U 25029Q   25145.25002315 -.00001120  00000+0 -25709-4 0  9990
2 62962  53.1569 131.9024 0001280  84.1385 177.0040 15.30183597 17061
STARLINK-32882          
1 62963U 25029R   25143.82509328 -.00226042  00000+0 -61429-2 0  9997
2 62963  53.1596 137.0313 0012953 115.1636 245.0713 15.37810528 16962
STARLINK-32887          
1 62964U 25029S   25144.43593787 -.00002517  00000+0 -53008-4 0  9993
2 62964  53.1599 134.4498 0001098  76.5652 283.5475 15.39599481 17054
