OBJECT_NAME,OBJECT_ID,EPOCH,MEAN_MOTION,ECCENTRICITY,INCLINATION,RA_OF_ASC_NODE,ARG_OF_PERICENTER,MEAN_ANOMALY,EPHEMERIS_TYPE,CLASSIFICATION_TYPE,NORAD_CAT_ID,ELEMENT_SET_NO,REV_AT_EPOCH,BSTAR,MEAN_MOTION_DOT,MEAN_MOTION_DDOT
STARLINK-11555 [DTC],2025-027J,2025-05-24T20:39:05.704416,15.70824729,.0001825,43.0008,288.9138,279.0320,81.0341,0,U,62915,999,1776,.54903E-5,.255E-5,0
STARLINK-11430 [DTC],2025-027K,2025-05-24T19:21:30.635712,15.70829689,.0001878,43.0008,289.3741,268.4635,91.6017,0,U,62916,999,1775,.3664E-5,.21E-6,0
STARLINK-11560 [DTC],2025-027L,2025-05-24T18:35:38.458752,15.70827451,.0001807,43.0003,289.1175,268.7504,91.3157,0,U,62917,999,1771,.30178E-5,-.62E-6,0
STARLINK-11562 [DTC],2025-027M,2025-05-24T19:51:54.870624,15.70830797,.0000667,42.9933,288.6545,316.1731,43.9083,0,U,62918,999,1776,.70039E-5,.451E-5,0
STARLINK-11457 [DTC],2025-027N,2025-05-24T10:27:15.672384,15.70829006,.0001026,42.9997,290.8624,280.6614,79.4138,0,U,62919,999,1764,.14899E-5,-.257E-5,0
STARLINK-32921,2025-027P,2025-05-24T13:11:19.403232,15.27578467,.0001053,43.0016,321.6466,261.7683,98.3049,0,U,62920,999,1732,-.17249E-4,-.737E-5,0
STARLINK-32917,2025-027Q,2025-05-24T18:14:08.866176,15.27579050,.0001078,42.9997,320.6401,262.8774,97.1955,0,U,62921,999,1735,-.31635E-5,-.349E-5,0
STARLINK-32916,2025-027R,2025-05-24T11:42:42.853536,15.27574942,.0001364,43.0017,322.0411,270.5462,89.5233,0,U,62922,999,1731,.2673E-4,.473E-5,0
STARLINK-32905,2025-027S,2025-05-24T23:13:14.954880,15.27627299,.0000824,42.9997,319.6267,284.2543,75.8217,0,U,62923,999,1738,-.22406E-3,-.6431E-4,0
STARLINK-32871,2025-027T,2025-05-24T13:26:05.456832,15.27589868,.0002008,42.9986,321.7139,243.6391,116.4255,0,U,62924,999,1731,.50848E-4,.1138E-4,0
STARLINK-32920,2025-027U,2025-05-24T11:46:24.828096,15.27563945,.0001359,43.0016,322.0582,243.2436,116.8277,0,U,62925,999,1731,.1445E-3,.3714E-4,0
STARLINK-32922,2025-027V,2025-05-24T18:25:14.443392,15.27583974,.0000817,42.9993,320.7017,276.5791,83.4968,0,U,62926,999,1735,.88108E-4,.2164E-4,0
STARLINK-32891,2025-027W,2025-05-24T18:34:30.388512,15.27587338,.0001326,43.0021,320.7539,268.9556,91.1143,0,U,62927,999,1732,.16964E-4,.205E-5,0
STARLINK-32728,2025-029A,2025-05-24T08:27:01.130688,15.39614469,.0001212,53.1597,134.6367,88.7167,271.3977,0,U,62948,999,1708,.29162E-4,.767E-5,0
STARLINK-32857,2025-029B,2025-05-24T23:01:44.471136,15.39615473,.00012,53.1603,132.0309,88.5008,271.6134,0,U,62949,999,1717,-.13417E-4,-.936E-5,0
STARLINK-32850,2025-029C,2025-05-25T05:38:56.488128,15.30194344,.0001269,53.1595,132.3231,88.8908,271.2238,0,U,62950,999,1717,.28049E-4,.471E-5,0
STARLINK-32875,2025-029D,2025-05-24T16:41:11.185440,15.39595549,.0001214,53.1593,133.2240,77.0112,283.1029,0,U,62951,999,1710,-.5218E-4,-.2484E-4,0
STARLINK-32865,2025-029E,2025-05-25T05:29:50.411616,15.30180598,.0001429,53.1620,132.2837,85.4896,274.6268,0,U,62952,999,1716,.11568E-4,-.17E-6,0
STARLINK-32884,2025-029F,2025-05-24T16:27:46.330560,15.39617048,.000136,53.1607,133.1652,95.6192,264.4968,0,U,62953,999,1710,.86105E-5,-.55E-6,0
STARLINK-32874,2025-029G,2025-05-23T08:47:31.954848,15.43074602,.0016671,53.1576,139.1478,355.2928,4.7919,0,U,62954,999,1690,.10606E-1,.510005E-2,0
STARLINK-32880,2025-029H,2025-05-24T23:12:05.878944,15.30188034,.0001223,53.1597,133.4885,82.1014,278.0125,0,U,62955,999,1712,-.12785E-4,-.738E-5,0
STARLINK-32815,2025-029J,2025-05-24T05:40:07.293792,15.39613203,.0001285,53.1606,135.3350,90.4923,269.6229,0,U,62956,999,1704,.14719E-4,.189E-5,0
STARLINK-32879,2025-029K,2025-05-24T11:14:37.523040,15.30195424,.0001401,53.1594,136.0694,68.2278,291.8872,0,U,62957,999,1703,-.3032E-4,-.1257E-4,0
STARLINK-32885,2025-029L,2025-05-24T08:20:20.073120,15.39604343,.0001199,53.1600,134.6052,87.9228,272.1914,0,U,62958,999,1704,.68179E-4,.2327E-4,0
STARLINK-32896,2025-029M,2025-05-24T22:31:13.857312,15.30193286,.0001213,53.1605,134.0240,93.9045,266.2094,0,U,62959,999,1710,-.6964E-5,-.565E-5,0
STARLINK-32877,2025-029N,2025-05-24T23:56:09.689568,15.30195876,.0001165,53.1605,133.6796,94.1002,266.0132,0,U,62960,999,1707,.24397E-4,.363E-5,0
STARLINK-32889,2025-029P,2025-05-24T09:54:14.817600,15.30189207,.0001284,53.1604,136.4334,94.9111,265.2036,0,U,62961,999,1702,.29958E-4,.528E-5,0
STARLINK-32858,2025-029Q,2025-05-25T06:00:02.000160,15.30183597,.000128,53.1569,131.9024,84.1385,177.0040,0,U,62962,999,1706,-.25709E-4,-.112E-4,0
STARLINK-32882,2025-029R,2025-05-23T19:48:08.059392,15.37810528,.0012953,53.1596,137.0313,115.1636,245.0713,0,U,62963,999,1696,-.61429E-2,-.226042E-2,0
STARLINK-32887,2025-029S,2025-05-24T10:27:45.031968,15.39599481,.0001098,53.1599,134.4498,76.5652,283.5475,0,U,62964,999,1705,-.53008E-4,-.2517E-4,0
